GLOBALSTAR M084         
1 38040U 11080A   25111.54515101 -.00000091  00000+0  72316-4 0  9990
2 38040  52.0006 220.9127 0000362 148.7915 323.0836 12.62265188615513
GLOBALSTAR M080         
1 38041U 11080B   25111.52144090 -.00000103  00000+0  73674-5 0  9997
2 38041  52.0055 222.5626 0000891  74.5765  55.2871 12.62648510615636
GLOBALSTAR M082         
1 38042U 11080C   25111.62014714 -.00000090  00000+0  76870-4 0  9993
2 38042  52.0059 177.7115 0000671  91.8202  61.3435 12.62265517616355
GLOBALSTAR M092         
1 38043U 11080D   25111.48960094 -.00000059  00000+0  25193-3 0  9995
2 38043  52.0079 268.4811 0000687 109.2142 290.8328 12.62263481614797
GLOBALSTAR M090         
1 38044U 11080E   25111.56555390 -.00000088  00000+0  85269-4 0  9997
2 38044  51.9868 171.7586 0000516 114.0971  30.7297 12.62269521616500
GLOBALSTAR M086         
1 38045U 11080F   25111.50463329 -.00000093  00000+0  57988-4 0  9995
2 38045  51.9881 172.4907 0001107 175.6247 292.6493 12.62269595616404
GLOBALSTAR M097         
1 39072U 13005A   25111.11147137 -.00000100  00000+0  21559-4 0  9992
2 39072  52.0033  88.1733 0000460  97.3866 262.7053 12.62271770563605
GLOBALSTAR M093         
1 39073U 13005B   25111.40157048 -.00000086  00000+0  97893-4 0  9994
2 39073  51.9803  80.6822 0000471  87.6957 272.3963 12.62263907563598
